"{\n    \"CCSDS_OMM_VERS\": \"2.0\",\n    \"COMMENT\": \"GENERATED VIA SPACE-TRACK.ORG API\",\n    \"CREATION_DATE\": \"2025-08-31T11:35:43\",\n    \"ORIGINATOR\": \"18 SPCS\",\n    \"OBJECT_NAME\": \"NAVSTAR 70 (USA 251)\",\n    \"OBJECT_ID\": \"2014-026A\",\n    \"CENTER_NAME\": \"EARTH\",\n    \"REF_FRAME\": \"TEME\",\n    \"TIME_SYSTEM\": \"UTC\",\n    \"MEAN_ELEMENT_THEORY\": \"SGP4\",\n    \"EPOCH\": \"2025-08-31T06:54:23.162112\",\n    \"MEAN_MOTION\": \"2.005688254\",\n    \"ECCENTRICITY\": \"0.0035458946\",\n    \"INCLINATION\": \"56.621227\",\n    \"RA_OF_ASC_NODE\": \"342.80078\",\n    \"ARG_OF_PERICENTER\": \"317.49539\",\n    \"MEAN_ANOMALY\": \"42.264572\",\n    \"EPHEMERIS_TYPE\": \"0\",\n    \"CLASSIFICATION_TYPE\": \"U\",\n    \"NORAD_CAT_ID\": \"39741\",\n    \"ELEMENT_SET_NO\": \"999\",\n    \"REV_AT_EPOCH\": \"8272\",\n    \"BSTAR\": \"0\",\n    \"MEAN_MOTION_DOT\": \"-0.000000974381\",\n    \"MEAN_MOTION_DDOT\": \"0\",\n    \"TLE_LINE0\": \"0 NAVSTAR 70 (USA 251)\",\n    \"TLE_LINE1\": \"1 39741U 14026A   25243.28776808 -.00000097  00000-0  00000-0 0  9996\",\n    \"TLE_LINE2\": \"2 39741  56.6212 342.8008 0035459 317.4954  42.2646  2.00568825 82721\",\n    \"SEMIMAJOR_AXIS\": \"26559.887\",\n    \"PERIOD\": \"717.958\",\n    \"APOAPSIS\": \"20275.930\",\n    \"PERIAPSIS\": \"20087.573\",\n    \"OBJECT_TYPE\": \"PAYLOAD\",\n    \"DECAYED\": \"0\"\n}"